<?xml version="1.0" encoding="UTF-8"?>
<ndm xmlns:xsi="http://www.w3.org/2001/XMLSchema-instance" xsi:noNamespaceSchemaLocation="https://sanaregistry.org/r/ndmxml_unqualified/ndmxml-2.0.0-master-2.0.xsd">
<omm id="CCSDS_OMM_VERS" version="2.0">
<header><CREATION_DATE/><ORIGINATOR/></header><body><segment><metadata><OBJECT_NAME>ONEWEB-0446</OBJECT_NAME><OBJECT_ID>2022-012U</OBJECT_ID><CENTER_NAME>EARTH</CENTER_NAME><REF_FRAME>TEME</REF_FRAME><TIME_SYSTEM>UTC</TIME_SYSTEM><MEAN_ELEMENT_THEORY>SGP4</MEAN_ELEMENT_THEORY></metadata><data><meanElements><EPOCH>2024-10-17T08:45:35.821152</EPOCH><MEAN_MOTION>13.10376877</MEAN_MOTION><ECCENTRICITY>.0001599</ECCENTRICITY><INCLINATION>87.8942</INCLINATION><RA_OF_ASC_NODE>157.2854</RA_OF_ASC_NODE><ARG_OF_PERICENTER>67.3574</ARG_OF_PERICENTER><MEAN_ANOMALY>292.7723</MEAN_ANOMALY></meanElements><tleParameters><EPHEMERIS_TYPE>0</EPHEMERIS_TYPE><CLASSIFICATION_TYPE>U</CLASSIFICATION_TYPE><NORAD_CAT_ID>51640</NORAD_CAT_ID><ELEMENT_SET_NO>999</ELEMENT_SET_NO><REV_AT_EPOCH>12972</REV_AT_EPOCH><BSTAR>-.12058E-2</BSTAR><MEAN_MOTION_DOT>-.408E-5</MEAN_MOTION_DOT><MEAN_MOTION_DDOT>0</MEAN_MOTION_DDOT></tleParameters></data></segment></body></omm>
<omm id="CCSDS_OMM_VERS" version="2.0">
<header><CREATION_DATE/><ORIGINATOR/></header><body><segment><metadata><OBJECT_NAME>ONEWEB-0448</OBJECT_NAME><OBJECT_ID>2022-012V</OBJECT_ID><CENTER_NAME>EARTH</CENTER_NAME><REF_FRAME>TEME</REF_FRAME><TIME_SYSTEM>UTC</TIME_SYSTEM><MEAN_ELEMENT_THEORY>SGP4</MEAN_ELEMENT_THEORY></metadata><data><meanElements><EPOCH>2024-10-17T08:52:46.149312</EPOCH><MEAN_MOTION>13.10374652</MEAN_MOTION><ECCENTRICITY>.000175</ECCENTRICITY><INCLINATION>87.8941</INCLINATION><RA_OF_ASC_NODE>157.2848</RA_OF_ASC_NODE><ARG_OF_PERICENTER>82.2742</ARG_OF_PERICENTER><MEAN_ANOMALY>277.8584</MEAN_ANOMALY></meanElements><tleParameters><EPHEMERIS_TYPE>0</EPHEMERIS_TYPE><CLASSIFICATION_TYPE>U</CLASSIFICATION_TYPE><NORAD_CAT_ID>51641</NORAD_CAT_ID><ELEMENT_SET_NO>999</ELEMENT_SET_NO><REV_AT_EPOCH>12969</REV_AT_EPOCH><BSTAR>-.57233E-3</BSTAR><MEAN_MOTION_DOT>-.187E-5</MEAN_MOTION_DOT><MEAN_MOTION_DDOT>0</MEAN_MOTION_DDOT></tleParameters></data></segment></body></omm>
<omm id="CCSDS_OMM_VERS" version="2.0">
<header><CREATION_DATE/><ORIGINATOR/></header><body><segment><metadata><OBJECT_NAME>ONEWEB-0449</OBJECT_NAME><OBJECT_ID>2022-012W</OBJECT_ID><CENTER_NAME>EARTH</CENTER_NAME><REF_FRAME>TEME</REF_FRAME><TIME_SYSTEM>UTC</TIME_SYSTEM><MEAN_ELEMENT_THEORY>SGP4</MEAN_ELEMENT_THEORY></metadata><data><meanElements><EPOCH>2024-10-17T08:59:56.304672</EPOCH><MEAN_MOTION>13.10377754</MEAN_MOTION><ECCENTRICITY>.0001367</ECCENTRICITY><INCLINATION>87.8937</INCLINATION><RA_OF_ASC_NODE>157.2721</RA_OF_ASC_NODE><ARG_OF_PERICENTER>80.4374</ARG_OF_PERICENTER><MEAN_ANOMALY>279.6908</MEAN_ANOMALY></meanElements><tleParameters><EPHEMERIS_TYPE>0</EPHEMERIS_TYPE><CLASSIFICATION_TYPE>U</CLASSIFICATION_TYPE><NORAD_CAT_ID>51642</NORAD_CAT_ID><ELEMENT_SET_NO>999</ELEMENT_SET_NO><REV_AT_EPOCH>12970</REV_AT_EPOCH><BSTAR>.19174E-3</BSTAR><MEAN_MOTION_DOT>.8E-6</MEAN_MOTION_DOT><MEAN_MOTION_DDOT>0</MEAN_MOTION_DDOT></tleParameters></data></segment></body></omm>
<omm id="CCSDS_OMM_VERS" version="2.0">
<header><CREATION_DATE/><ORIGINATOR/></header><body><segment><metadata><OBJECT_NAME>ONEWEB-0451</OBJECT_NAME><OBJECT_ID>2022-012X</OBJECT_ID><CENTER_NAME>EARTH</CENTER_NAME><REF_FRAME>TEME</REF_FRAME><TIME_SYSTEM>UTC</TIME_SYSTEM><MEAN_ELEMENT_THEORY>SGP4</MEAN_ELEMENT_THEORY></metadata><data><meanElements><EPOCH>2024-10-17T11:48:01.997856</EPOCH><MEAN_MOTION>13.17650115</MEAN_MOTION><ECCENTRICITY>.0001592</ECCENTRICITY><INCLINATION>87.9080</INCLINATION><RA_OF_ASC_NODE>126.9054</RA_OF_ASC_NODE><ARG_OF_PERICENTER>87.6071</ARG_OF_PERICENTER><MEAN_ANOMALY>272.5243</MEAN_ANOMALY></meanElements><tleParameters><EPHEMERIS_TYPE>0</EPHEMERIS_TYPE><CLASSIFICATION_TYPE>U</CLASSIFICATION_TYPE><NORAD_CAT_ID>51643</NORAD_CAT_ID><ELEMENT_SET_NO>999</ELEMENT_SET_NO><REV_AT_EPOCH>13363</REV_AT_EPOCH><BSTAR>.13511E-3</BSTAR><MEAN_MOTION_DOT>.65E-6</MEAN_MOTION_DOT><MEAN_MOTION_DDOT>0</MEAN_MOTION_DDOT></tleParameters></data></segment></body></omm>
<omm id="CCSDS_OMM_VERS" version="2.0">
<header><CREATION_DATE/><ORIGINATOR/></header><body><segment><metadata><OBJECT_NAME>ONEWEB-0452</OBJECT_NAME><OBJECT_ID>2022-012Y</OBJECT_ID><CENTER_NAME>EARTH</CENTER_NAME><REF_FRAME>TEME</REF_FRAME><TIME_SYSTEM>UTC</TIME_SYSTEM><MEAN_ELEMENT_THEORY>SGP4</MEAN_ELEMENT_THEORY></metadata><data><meanElements><EPOCH>2024-10-17T11:45:34.435296</EPOCH><MEAN_MOTION>13.17652405</MEAN_MOTION><ECCENTRICITY>.000145</ECCENTRICITY><INCLINATION>87.9086</INCLINATION><RA_OF_ASC_NODE>126.9530</RA_OF_ASC_NODE><ARG_OF_PERICENTER>98.7612</ARG_OF_PERICENTER><MEAN_ANOMALY>261.3684</MEAN_ANOMALY></meanElements><tleParameters><EPHEMERIS_TYPE>0</EPHEMERIS_TYPE><CLASSIFICATION_TYPE>U</CLASSIFICATION_TYPE><NORAD_CAT_ID>51644</NORAD_CAT_ID><ELEMENT_SET_NO>999</ELEMENT_SET_NO><REV_AT_EPOCH>13364</REV_AT_EPOCH><BSTAR>.2648E-3</BSTAR><MEAN_MOTION_DOT>.116E-5</MEAN_MOTION_DOT><MEAN_MOTION_DDOT>0</MEAN_MOTION_DDOT></tleParameters></data></segment></body></omm>
<omm id="CCSDS_OMM_VERS" version="2.0">
<header><CREATION_DATE/><ORIGINATOR/></header><body><segment><metadata><OBJECT_NAME>ONEWEB-0456</OBJECT_NAME><OBJECT_ID>2022-012AA</OBJECT_ID><CENTER_NAME>EARTH</CENTER_NAME><REF_FRAME>TEME</REF_FRAME><TIME_SYSTEM>UTC</TIME_SYSTEM><MEAN_ELEMENT_THEORY>SGP4</MEAN_ELEMENT_THEORY></metadata><data><meanElements><EPOCH>2024-10-17T09:14:18.456576</EPOCH><MEAN_MOTION>13.10375040</MEAN_MOTION><ECCENTRICITY>.0001971</ECCENTRICITY><INCLINATION>87.8930</INCLINATION><RA_OF_ASC_NODE>157.2379</RA_OF_ASC_NODE><ARG_OF_PERICENTER>76.0670</ARG_OF_PERICENTER><MEAN_ANOMALY>284.0676</MEAN_ANOMALY></meanElements><tleParameters><EPHEMERIS_TYPE>0</EPHEMERIS_TYPE><CLASSIFICATION_TYPE>U</CLASSIFICATION_TYPE><NORAD_CAT_ID>51646</NORAD_CAT_ID><ELEMENT_SET_NO>999</ELEMENT_SET_NO><REV_AT_EPOCH>12974</REV_AT_EPOCH><BSTAR>.15394E-2</BSTAR><MEAN_MOTION_DOT>.55E-5</MEAN_MOTION_DOT><MEAN_MOTION_DDOT>0</MEAN_MOTION_DDOT></tleParameters></data></segment></body></omm>
<omm id="CCSDS_OMM_VERS" version="2.0">
<header><CREATION_DATE/><ORIGINATOR/></header><body><segment><metadata><OBJECT_NAME>ONEWEB-0457</OBJECT_NAME><OBJECT_ID>2022-012AB</OBJECT_ID><CENTER_NAME>EARTH</CENTER_NAME><REF_FRAME>TEME</REF_FRAME><TIME_SYSTEM>UTC</TIME_SYSTEM><MEAN_ELEMENT_THEORY>SGP4</MEAN_ELEMENT_THEORY></metadata><data><meanElements><EPOCH>2024-10-17T03:10:56.437824</EPOCH><MEAN_MOTION>13.10373516</MEAN_MOTION><ECCENTRICITY>.0001448</ECCENTRICITY><INCLINATION>87.8943</INCLINATION><RA_OF_ASC_NODE>157.3208</RA_OF_ASC_NODE><ARG_OF_PERICENTER>73.7624</ARG_OF_PERICENTER><MEAN_ANOMALY>286.3662</MEAN_ANOMALY></meanElements><tleParameters><EPHEMERIS_TYPE>0</EPHEMERIS_TYPE><CLASSIFICATION_TYPE>U</CLASSIFICATION_TYPE><NORAD_CAT_ID>51647</NORAD_CAT_ID><ELEMENT_SET_NO>999</ELEMENT_SET_NO><REV_AT_EPOCH>12971</REV_AT_EPOCH><BSTAR>-.1347E-2</BSTAR><MEAN_MOTION_DOT>-.458E-5</MEAN_MOTION_DOT><MEAN_MOTION_DDOT>0</MEAN_MOTION_DDOT></tleParameters></data></segment></body></omm>
<omm id="CCSDS_OMM_VERS" version="2.0">
<header><CREATION_DATE/><ORIGINATOR/></header><body><segment><metadata><OBJECT_NAME>ONEWEB-0458</OBJECT_NAME><OBJECT_ID>2022-012AC</OBJECT_ID><CENTER_NAME>EARTH</CENTER_NAME><REF_FRAME>TEME</REF_FRAME><TIME_SYSTEM>UTC</TIME_SYSTEM><MEAN_ELEMENT_THEORY>SGP4</MEAN_ELEMENT_THEORY></metadata><data><meanElements><EPOCH>2024-10-17T09:11:55.157856</EPOCH><MEAN_MOTION>13.10377716</MEAN_MOTION><ECCENTRICITY>.0001609</ECCENTRICITY><INCLINATION>87.8927</INCLINATION><RA_OF_ASC_NODE>157.2887</RA_OF_ASC_NODE><ARG_OF_PERICENTER>82.8974</ARG_OF_PERICENTER><MEAN_ANOMALY>277.2336</MEAN_ANOMALY></meanElements><tleParameters><EPHEMERIS_TYPE>0</EPHEMERIS_TYPE><CLASSIFICATION_TYPE>U</CLASSIFICATION_TYPE><NORAD_CAT_ID>51648</NORAD_CAT_ID><ELEMENT_SET_NO>999</ELEMENT_SET_NO><REV_AT_EPOCH>12970</REV_AT_EPOCH><BSTAR>.12717E-2</BSTAR><MEAN_MOTION_DOT>.457E-5</MEAN_MOTION_DOT><MEAN_MOTION_DDOT>0</MEAN_MOTION_DDOT></tleParameters></data></segment></body></omm>

</ndm>
