ONEWEB-0446             
1 51640U 22012U   24291.36499793 -.00000408  00000+0 -12058-2 0  9992
2 51640  87.8942 157.2854 0001599  67.3574 292.7723 13.10376877129720
ONEWEB-0448             
1 51641U 22012V   24291.36997858 -.00000187  00000+0 -57233-3 0  9997
2 51641  87.8941 157.2848 0001750  82.2742 277.8584 13.10374652129699
ONEWEB-0449             
1 51642U 22012W   24291.37495723  .00000080  00000+0  19174-3 0  9995
2 51642  87.8937 157.2721 0001367  80.4374 279.6908 13.10377754129708
ONEWEB-0451             
1 51643U 22012X   24291.49168979  .00000065  00000+0  13511-3 0  9991
2 51643  87.9080 126.9054 0001592  87.6071 272.5243 13.17650115133637
ONEWEB-0452             
1 51644U 22012Y   24291.48998189  .00000116  00000+0  26480-3 0  9991
2 51644  87.9086 126.9530 0001450  98.7612 261.3684 13.17652405133640
ONEWEB-0456             
1 51646U 22012AA  24291.38493584  .00000550  00000+0  15394-2 0  9994
2 51646  87.8930 157.2379 0001971  76.0670 284.0676 13.10375040129747
ONEWEB-0457             
1 51647U 22012AB  24291.13259766 -.00000458  00000+0 -13470-2 0  9992
2 51647  87.8943 157.3208 0001448  73.7624 286.3662 13.10373516129719
ONEWEB-0458             
1 51648U 22012AC  24291.38327729  .00000457  00000+0  12717-2 0  9995
2 51648  87.8927 157.2887 0001609  82.8974 277.2336 13.10377716129704
